{"fetched_at":"2026-07-16T17:46:50.869Z","source":"https://celestrak.org/NORAD/elements/gp.php?NAME=O3B&FORMAT=JSON","constellation":"o3b-mpower","records":[{"OBJECT_NAME":"O3B MPOWER F1","OBJECT_ID":"2022-174A","EPOCH":"2026-07-16T03:18:18.812736","CLASSIFICATION_TYPE":"U","MEAN_MOTION":5.00114754,"ECCENTRICITY":0.00066424,"INCLINATION":0.0491,"RA_OF_ASC_NODE":339.3391,"ARG_OF_PERICENTER":146.0211,"MEAN_ANOMALY":252.9208,"EPHEMERIS_TYPE":0,"NORAD_CAT_ID":54755,"ELEMENT_SET_NO":999,"REV_AT_EPOCH":6680,"BSTAR":0,"MEAN_MOTION_DOT":-2.4e-7,"MEAN_MOTION_DDOT":0},{"OBJECT_NAME":"O3B MPOWER F2","OBJECT_ID":"2022-174B","EPOCH":"2026-07-14T16:40:54.538752","CLASSIFICATION_TYPE":"U","MEAN_MOTION":5.0011492,"ECCENTRICITY":0.00057894,"INCLINATION":0.0451,"RA_OF_ASC_NODE":339.8088,"ARG_OF_PERICENTER":128.0659,"MEAN_ANOMALY":252.185,"EPHEMERIS_TYPE":0,"NORAD_CAT_ID":54756,"ELEMENT_SET_NO":999,"REV_AT_EPOCH":6682,"BSTAR":0,"MEAN_MOTION_DOT":-2.3e-7,"MEAN_MOTION_DDOT":0},{"OBJECT_NAME":"O3B MPOWER F4","OBJECT_ID":"2023-059A","EPOCH":"2026-07-15T18:12:36.648000","CLASSIFICATION_TYPE":"U","MEAN_MOTION":5.00115419,"ECCENTRICITY":0.0007732,"INCLINATION":0.0629,"RA_OF_ASC_NODE":349.8454,"ARG_OF_PERICENTER":127.6337,"MEAN_ANOMALY":242.5957,"EPHEMERIS_TYPE":0,"NORAD_CAT_ID":56367,"ELEMENT_SET_NO":999,"REV_AT_EPOCH":6003,"BSTAR":0,"MEAN_MOTION_DOT":-2.4e-7,"MEAN_MOTION_DDOT":0},{"OBJECT_NAME":"O3B MPOWER F3","OBJECT_ID":"2023-059B","EPOCH":"2026-07-16T04:36:00.199008","CLASSIFICATION_TYPE":"U","MEAN_MOTION":5.00116431,"ECCENTRICITY":0.00066643,"INCLINATION":0.0636,"RA_OF_ASC_NODE":349.0056,"ARG_OF_PERICENTER":122.1685,"MEAN_ANOMALY":248.8932,"EPHEMERIS_TYPE":0,"NORAD_CAT_ID":56368,"ELEMENT_SET_NO":999,"REV_AT_EPOCH":5617,"BSTAR":0,"MEAN_MOTION_DOT":-2.4e-7,"MEAN_MOTION_DDOT":0},{"OBJECT_NAME":"O3B MPOWER F5","OBJECT_ID":"2023-175A","EPOCH":"2026-07-16T02:13:35.957856","CLASSIFICATION_TYPE":"U","MEAN_MOTION":5.001158,"ECCENTRICITY":0.00055172,"INCLINATION":0.0524,"RA_OF_ASC_NODE":9.0762,"ARG_OF_PERICENTER":123.6721,"MEAN_ANOMALY":227.2942,"EPHEMERIS_TYPE":0,"NORAD_CAT_ID":58346,"ELEMENT_SET_NO":999,"REV_AT_EPOCH":5088,"BSTAR":0,"MEAN_MOTION_DOT":-2.4e-7,"MEAN_MOTION_DDOT":0},{"OBJECT_NAME":"O3B MPOWER F6","OBJECT_ID":"2023-175B","EPOCH":"2026-07-16T04:38:17.169792","CLASSIFICATION_TYPE":"U","MEAN_MOTION":5.00115732,"ECCENTRICITY":0.00044277,"INCLINATION":0.0541,"RA_OF_ASC_NODE":0.7033,"ARG_OF_PERICENTER":112.6765,"MEAN_ANOMALY":246.6628,"EPHEMERIS_TYPE":0,"NORAD_CAT_ID":58347,"ELEMENT_SET_NO":999,"REV_AT_EPOCH":4979,"BSTAR":0,"MEAN_MOTION_DOT":-2.5e-7,"MEAN_MOTION_DDOT":0},{"OBJECT_NAME":"O3B MPOWER F7","OBJECT_ID":"2024-244A","EPOCH":"2026-07-16T06:13:54.317280","CLASSIFICATION_TYPE":"U","MEAN_MOTION":5.00115268,"ECCENTRICITY":0.00059244,"INCLINATION":0.0658,"RA_OF_ASC_NODE":342.6099,"ARG_OF_PERICENTER":128.2629,"MEAN_ANOMALY":249.1867,"EPHEMERIS_TYPE":0,"NORAD_CAT_ID":62362,"ELEMENT_SET_NO":999,"REV_AT_EPOCH":2797,"BSTAR":0,"MEAN_MOTION_DOT":-2.4e-7,"MEAN_MOTION_DDOT":0},{"OBJECT_NAME":"O3B MPOWER F8","OBJECT_ID":"2024-244B","EPOCH":"2026-07-15T19:50:37.735296","CLASSIFICATION_TYPE":"U","MEAN_MOTION":5.00115005,"ECCENTRICITY":0.000575,"INCLINATION":0.0145,"RA_OF_ASC_NODE":4.9387,"ARG_OF_PERICENTER":98.0226,"MEAN_ANOMALY":257.0989,"EPHEMERIS_TYPE":0,"NORAD_CAT_ID":62363,"ELEMENT_SET_NO":999,"REV_AT_EPOCH":2230,"BSTAR":0,"MEAN_MOTION_DOT":-2.4e-7,"MEAN_MOTION_DDOT":0},{"OBJECT_NAME":"O3B MPOWER F9","OBJECT_ID":"2025-153A","EPOCH":"2026-07-15T08:39:00.821952","CLASSIFICATION_TYPE":"U","MEAN_MOTION":5.00115544,"ECCENTRICITY":0.00067313,"INCLINATION":0.0613,"RA_OF_ASC_NODE":5.5162,"ARG_OF_PERICENTER":126.663,"MEAN_ANOMALY":227.8743,"EPHEMERIS_TYPE":0,"NORAD_CAT_ID":64866,"ELEMENT_SET_NO":999,"REV_AT_EPOCH":2097,"BSTAR":0,"MEAN_MOTION_DOT":-2.4e-7,"MEAN_MOTION_DDOT":0},{"OBJECT_NAME":"O3B MPOWER F10","OBJECT_ID":"2025-153B","EPOCH":"2026-07-16T03:01:30.027072","CLASSIFICATION_TYPE":"U","MEAN_MOTION":5.00114845,"ECCENTRICITY":0.00024276,"INCLINATION":0.0585,"RA_OF_ASC_NODE":2.0913,"ARG_OF_PERICENTER":245.7301,"MEAN_ANOMALY":112.1488,"EPHEMERIS_TYPE":0,"NORAD_CAT_ID":64867,"ELEMENT_SET_NO":999,"REV_AT_EPOCH":2348,"BSTAR":0,"MEAN_MOTION_DOT":-2.4e-7,"MEAN_MOTION_DDOT":0}]}
