O3B MPOWER F1           
1 54755U 22174A   26197.13771774 -.00000024  00000+0  00000+0 0  9999
2 54755   0.0491 339.3391 0006642 146.0211 252.9208  5.00114754 66801
O3B MPOWER F2           
1 54756U 22174B   26195.69507568 -.00000023  00000+0  00000+0 0  9996
2 54756   0.0451 339.8088 0005789 128.0659 252.1850  5.00114920 66825
O3B MPOWER F4           
1 56367U 23059A   26196.75875750 -.00000024  00000+0  00000+0 0  9999
2 56367   0.0629 349.8454 0007732 127.6337 242.5957  5.00115419 60030
O3B MPOWER F3           
1 56368U 23059B   26197.19166897 -.00000024  00000+0  00000+0 0  9994
2 56368   0.0636 349.0056 0006664 122.1685 248.8932  5.00116431 56175
O3B MPOWER F5           
1 58346U 23175A   26197.09277729 -.00000024  00000+0  00000+0 0  9997
2 58346   0.0524   9.0762 0005517 123.6721 227.2942  5.00115800 50882
O3B MPOWER F6           
1 58347U 23175B   26197.19325428 -.00000025  00000+0  00000+0 0  9990
2 58347   0.0541   0.7033 0004427 112.6765 246.6628  5.00115732 49794
O3B MPOWER F7           
1 62362U 24244A   26197.25965645 -.00000024  00000+0  00000+0 0  9997
2 62362   0.0658 342.6099 0005924 128.2629 249.1867  5.00115268 27973
O3B MPOWER F8           
1 62363U 24244B   26196.82682564 -.00000024  00000+0  00000+0 0  9996
2 62363   0.0145   4.9387 0005750  98.0226 257.0989  5.00115005 22301
O3B MPOWER F9           
1 64866U 25153A   26196.36042618 -.00000024  00000+0  00000+0 0  9995
2 64866   0.0613   5.5162 0006731 126.6630 227.8743  5.00115544 20978
O3B MPOWER F10          
1 64867U 25153B   26197.12604198 -.00000024  00000+0  00000+0 0  9998
2 64867   0.0585   2.0913 0002427 245.7301 112.1488  5.00114845 23483
